[{"OBJECT_NAME":"STARLINK-4612","OBJECT_ID":"2022-107BC","EPOCH":"2026-03-09T20:14:00.018528","MEAN_MOTION":15.08836007,"ECCENTRICITY":0.00013003,"INCLINATION":53.2153,"RA_OF_ASC_NODE":263.6409,"ARG_OF_PERICENTER":83.9132,"MEAN_ANOMALY":276.2008,"EPHEMERIS_TYPE":0,"CLASSIFICATION_TYPE":"U","NORAD_CAT_ID":53750,"ELEMENT_SET_NO":999,"REV_AT_EPOCH":19462,"BSTAR":4.853272e-6,"MEAN_MOTION_DOT":-2.11e-6,"MEAN_MOTION_DDOT":0},{"OBJECT_NAME":"SL-6 R\/B(2)","OBJECT_ID":"1990-055D","EPOCH":"2026-03-09T21:41:59.551872","MEAN_MOTION":15.03595553,"ECCENTRICITY":0.00247741,"INCLINATION":62.7825,"RA_OF_ASC_NODE":253.121,"ARG_OF_PERICENTER":347.1508,"MEAN_ANOMALY":12.8957,"EPHEMERIS_TYPE":0,"CLASSIFICATION_TYPE":"U","NORAD_CAT_ID":20666,"ELEMENT_SET_NO":999,"REV_AT_EPOCH":93822,"BSTAR":0.00020900577,"MEAN_MOTION_DOT":2.688e-5,"MEAN_MOTION_DDOT":0}]
